start=new Date('2023-04-30T00:00:00.000Z').valueOf();
sats=[{"ECCENTRICITY":"0.00007650","PERIOD":"95.437","SITE":"AFETR","PERIAPSIS":"539.193","CENTER_NAME":"EARTH","LAUNCH_DATE":"2022-09-24","APOAPSIS":"540.251","OBJECT_NAME":"STARLINK-5037","TLE_LINE2":"2 53896  53.2162 338.2341 0000765  85.4445 274.6634 15.08847685 33824","TIME_SYSTEM":"UTC","MEAN_ELEMENT_THEORY":"SGP4","EPOCH":"2023-04-29T00:03:30.782304","DECAY_DATE":null,"ELEMENT_SET_NO":"999","COUNTRY_CODE":"US","ARG_OF_PERICENTER":"85.4445","OBJECT_ID":"2022-119L","EPHEMERIS_TYPE":"0","BSTAR":"-0.00006378400000","RCS_SIZE":"LARGE","TLE_LINE1":"1 53896U 22119L   23119.00243961 -.00001303  00000-0 -63784-4 0  9998","MEAN_MOTION_DOT":"-0.00001303","REF_FRAME":"TEME","OBJECT_TYPE":"PAYLOAD","FILE":"3896517","SEMIMAJOR_AXIS":"6917.857","GP_ID":"230931678","CLASSIFICATION_TYPE":"U","MEAN_ANOMALY":"274.6634","RA_OF_ASC_NODE":"338.2341","MEAN_MOTION":"15.08847685","REV_AT_EPOCH":"3382","MEAN_MOTION_DDOT":"0.0000000000000","INCLINATION":"53.2162","NORAD_CAT_ID":"53896"},{"DECAY_DATE":null,"EPOCH":"2023-04-29T16:18:35.398368","COUNTRY_CODE":"US","ELEMENT_SET_NO":"999","PERIAPSIS":"538.700","PERIOD":"95.437","ECCENTRICITY":"0.00014860","SITE":"AFETR","TIME_SYSTEM":"UTC","TLE_LINE2":"2 53897  53.2169 335.3501 0001486  89.5998 270.5164 15.08845799 33509","APOAPSIS":"540.756","OBJECT_NAME":"STARLINK-5035","MEAN_ELEMENT_THEORY":"SGP4","CENTER_NAME":"EARTH","LAUNCH_DATE":"2022-09-24","MEAN_ANOMALY":"270.5164","CLASSIFICATION_TYPE":"U","OBJECT_TYPE":"PAYLOAD","FILE":"3896564","MEAN_MOTION_DOT":"0.00005952","REF_FRAME":"TEME","GP_ID":"230933965","SEMIMAJOR_AXIS":"6917.863","NORAD_CAT_ID":"53897","INCLINATION":"53.2169","MEAN_MOTION":"15.08845799","RA_OF_ASC_NODE":"335.3501","MEAN_MOTION_DDOT":"0.0000000000000","REV_AT_EPOCH":"3350","OBJECT_ID":"2022-119M","EPHEMERIS_TYPE":"0","ARG_OF_PERICENTER":"89.5998","TLE_LINE1":"1 53897U 22119M   23119.67957637  .00005952  00000-0  39168-3 0  9994","RCS_SIZE":"LARGE","BSTAR":"0.00039168000000"},{"EPHEMERIS_TYPE":"0","OBJECT_ID":"2022-119N","ARG_OF_PERICENTER":"119.2728","TLE_LINE1":"1 53898U 22119N   23119.72003609 -.00002725  00000-0 -15320-3 0  9993","RCS_SIZE":"LARGE","BSTAR":"-0.00015320000000","MEAN_ANOMALY":"240.8368","CLASSIFICATION_TYPE":"U","FILE":"3896573","OBJECT_TYPE":"PAYLOAD","MEAN_MOTION_DOT":"-0.00002725","REF_FRAME":"TEME","GP_ID":"230933983","SEMIMAJOR_AXIS":"6917.880","NORAD_CAT_ID":"53898","INCLINATION":"53.2165","MEAN_MOTION":"15.08840146","RA_OF_ASC_NODE":"334.8945","MEAN_MOTION_DDOT":"0.0000000000000","REV_AT_EPOCH":"3351","PERIAPSIS":"539.032","PERIOD":"95.438","ECCENTRICITY":"0.00010300","SITE":"AFETR","TLE_LINE2":"2 53898  53.2165 334.8945 0001030 119.2728 240.8368 15.08840146 33517","TIME_SYSTEM":"UTC","OBJECT_NAME":"STARLINK-5044","APOAPSIS":"540.457","MEAN_ELEMENT_THEORY":"SGP4","CENTER_NAME":"EARTH","LAUNCH_DATE":"2022-09-24","DECAY_DATE":null,"EPOCH":"2023-04-29T17:16:51.118176","COUNTRY_CODE":"US","ELEMENT_SET_NO":"999"},{"MEAN_MOTION_DDOT":"0.0000000000000","REV_AT_EPOCH":"3383","RA_OF_ASC_NODE":"337.8880","MEAN_MOTION":"15.08849591","NORAD_CAT_ID":"53899","INCLINATION":"53.2161","GP_ID":"230931159","SEMIMAJOR_AXIS":"6917.851","FILE":"3896517","OBJECT_TYPE":"PAYLOAD","MEAN_MOTION_DOT":"-0.00000778","REF_FRAME":"TEME","MEAN_ANOMALY":"270.4572","CLASSIFICATION_TYPE":"U","RCS_SIZE":"LARGE","BSTAR":"-0.00003077400000","TLE_LINE1":"1 53899U 22119P   23119.06131009 -.00000778  00000-0 -30774-4 0  9994","ARG_OF_PERICENTER":"89.6562","EPHEMERIS_TYPE":"0","OBJECT_ID":"2022-119P","ELEMENT_SET_NO":"999","COUNTRY_CODE":"US","EPOCH":"2023-04-29T01:28:17.191776","DECAY_DATE":null,"LAUNCH_DATE":"2022-09-24","CENTER_NAME":"EARTH","MEAN_ELEMENT_THEORY":"SGP4","TLE_LINE2":"2 53899  53.2161 337.8880 0001243  89.6562 270.4572 15.08849591 33831","TIME_SYSTEM":"UTC","APOAPSIS":"540.576","OBJECT_NAME":"STARLINK-5042","SITE":"AFETR","PERIOD":"95.437","ECCENTRICITY":"0.00012430","PERIAPSIS":"538.856"},{"PERIAPSIS":"538.987","ECCENTRICITY":"0.00010900","PERIOD":"95.437","SITE":"AFETR","OBJECT_NAME":"STARLINK-5045","APOAPSIS":"540.495","TIME_SYSTEM":"UTC","TLE_LINE2":"2 53900  53.2160 334.8488 0001090  97.6363 262.4753 15.08841449 33513","MEAN_ELEMENT_THEORY":"SGP4","CENTER_NAME":"EARTH","LAUNCH_DATE":"2022-09-24","DECAY_DATE":null,"EPOCH":"2023-04-29T17:06:13.600224","COUNTRY_CODE":"US","ELEMENT_SET_NO":"999","OBJECT_ID":"2022-119Q","EPHEMERIS_TYPE":"0","ARG_OF_PERICENTER":"97.6363","TLE_LINE1":"1 53900U 22119Q   23119.71265741  .00006530  00000-0  42799-3 0  9999","BSTAR":"0.00042799000000","RCS_SIZE":"LARGE","CLASSIFICATION_TYPE":"U","MEAN_ANOMALY":"262.4753","REF_FRAME":"TEME","MEAN_MOTION_DOT":"0.00006530","OBJECT_TYPE":"PAYLOAD","FILE":"3896565","SEMIMAJOR_AXIS":"6917.876","GP_ID":"230934283","INCLINATION":"53.2160","NORAD_CAT_ID":"53900","RA_OF_ASC_NODE":"334.8488","MEAN_MOTION":"15.08841449","REV_AT_EPOCH":"3351","MEAN_MOTION_DDOT":"0.0000000000000"},{"MEAN_MOTION_DOT":"-0.00001022","REF_FRAME":"TEME","FILE":"3896517","OBJECT_TYPE":"PAYLOAD","SEMIMAJOR_AXIS":"6917.835","GP_ID":"230931929","CLASSIFICATION_TYPE":"U","MEAN_ANOMALY":"276.3865","MEAN_MOTION":"15.08854843","RA_OF_ASC_NODE":"338.5036","REV_AT_EPOCH":"3381","MEAN_MOTION_DDOT":"0.0000000000000","INCLINATION":"53.2183","NORAD_CAT_ID":"53901","ARG_OF_PERICENTER":"83.7234","EPHEMERIS_TYPE":"0","OBJECT_ID":"2022-119R","BSTAR":"-0.00004609700000","RCS_SIZE":"LARGE","TLE_LINE1":"1 53901U 22119R   23118.93250548 -.00001022  00000-0 -46097-4 0  9991","EPOCH":"2023-04-28T22:22:48.473472","DECAY_DATE":null,"ELEMENT_SET_NO":"999","COUNTRY_CODE":"US","ECCENTRICITY":"0.00009430","PERIOD":"95.437","SITE":"AFETR","PERIAPSIS":"539.048","CENTER_NAME":"EARTH","LAUNCH_DATE":"2022-09-24","APOAPSIS":"540.352","OBJECT_NAME":"STARLINK-5024","TLE_LINE2":"2 53901  53.2183 338.5036 0000943  83.7234 276.3865 15.08854843 33811","TIME_SYSTEM":"UTC","MEAN_ELEMENT_THEORY":"SGP4"},{"MEAN_ANOMALY":"271.4682","CLASSIFICATION_TYPE":"U","GP_ID":"230934011","SEMIMAJOR_AXIS":"6917.870","FILE":"3896566","OBJECT_TYPE":"PAYLOAD","REF_FRAME":"TEME","MEAN_MOTION_DOT":"0.00001055","NORAD_CAT_ID":"53902","INCLINATION":"53.2177","MEAN_MOTION_DDOT":"0.0000000000000","REV_AT_EPOCH":"3421","MEAN_MOTION":"15.08843479","RA_OF_ASC_NODE":"284.9452","OBJECT_ID":"2022-119S","EPHEMERIS_TYPE":"0","ARG_OF_PERICENTER":"88.6450","TLE_LINE1":"1 53902U 22119S   23119.71358612  .00001055  00000-0  84380-4 0  9991","RCS_SIZE":"LARGE","BSTAR":"0.00008438000000","DECAY_DATE":null,"EPOCH":"2023-04-29T17:07:33.840768","COUNTRY_CODE":"US","ELEMENT_SET_NO":"999","PERIAPSIS":"538.891","SITE":"AFETR","PERIOD":"95.437","ECCENTRICITY":"0.00012200","MEAN_ELEMENT_THEORY":"SGP4","TLE_LINE2":"2 53902  53.2177 284.9452 0001220  88.6450 271.4682 15.08843479 34215","TIME_SYSTEM":"UTC","APOAPSIS":"540.579","OBJECT_NAME":"STARLINK-5021","LAUNCH_DATE":"2022-09-24","CENTER_NAME":"EARTH"},{"DECAY_DATE":null,"EPOCH":"2023-04-28T22:06:54.661536","COUNTRY_CODE":"US","ELEMENT_SET_NO":"999","PERIAPSIS":"538.830","SITE":"AFETR","ECCENTRICITY":"0.00013160","PERIOD":"95.437","MEAN_ELEMENT_THEORY":"SGP4","APOAPSIS":"540.651","OBJECT_NAME":"STARLINK-5022","TLE_LINE2":"2 53903  53.2185 338.4344 0001316  83.0278 277.0864 15.08841706 33813","TIME_SYSTEM":"UTC","LAUNCH_DATE":"2022-09-24","CENTER_NAME":"EARTH","CLASSIFICATION_TYPE":"U","MEAN_ANOMALY":"277.0864","SEMIMAJOR_AXIS":"6917.875","GP_ID":"230931660","REF_FRAME":"TEME","MEAN_MOTION_DOT":"-0.00000512","FILE":"3896517","OBJECT_TYPE":"PAYLOAD","INCLINATION":"53.2185","NORAD_CAT_ID":"53903","REV_AT_EPOCH":"3381","MEAN_MOTION_DDOT":"0.0000000000000","RA_OF_ASC_NODE":"338.4344","MEAN_MOTION":"15.08841706","EPHEMERIS_TYPE":"0","OBJECT_ID":"2022-119T","ARG_OF_PERICENTER":"83.0278","TLE_LINE1":"1 53903U 22119T   23118.92146599 -.00000512  00000-0 -14059-4 0  9998","BSTAR":"-0.00001405900000","RCS_SIZE":"LARGE"},{"CENTER_NAME":"EARTH","LAUNCH_DATE":"2022-09-24","OBJECT_NAME":"STARLINK-4787","APOAPSIS":"540.661","TLE_LINE2":"2 53904  53.2151 334.8260 0001345  87.9788 272.1358 15.08844920 33517","TIME_SYSTEM":"UTC","MEAN_ELEMENT_THEORY":"SGP4","ECCENTRICITY":"0.00013450","PERIOD":"95.437","SITE":"AFETR","PERIAPSIS":"538.800","ELEMENT_SET_NO":"999","COUNTRY_CODE":"US","EPOCH":"2023-04-29T17:00:54.939744","DECAY_DATE":null,"BSTAR":"0.00001525400000","RCS_SIZE":"LARGE","TLE_LINE1":"1 53904U 22119U   23119.70896921 -.00000045  00000-0  15254-4 0  9995","ARG_OF_PERICENTER":"87.9788","OBJECT_ID":"2022-119U","EPHEMERIS_TYPE":"0","MEAN_MOTION":"15.08844920","RA_OF_ASC_NODE":"334.8260","REV_AT_EPOCH":"3351","MEAN_MOTION_DDOT":"0.0000000000000","INCLINATION":"53.2151","NORAD_CAT_ID":"53904","REF_FRAME":"TEME","MEAN_MOTION_DOT":"-0.00000045","OBJECT_TYPE":"PAYLOAD","FILE":"3896566","SEMIMAJOR_AXIS":"6917.865","GP_ID":"230934298","CLASSIFICATION_TYPE":"U","MEAN_ANOMALY":"272.1358"},{"ARG_OF_PERICENTER":"59.6116","OBJECT_ID":"2022-119V","EPHEMERIS_TYPE":"0","BSTAR":"0.00019058000000","RCS_SIZE":"LARGE","TLE_LINE1":"1 53905U 22119V   23119.69892356  .00002747  00000-0  19058-3 0  9997","MEAN_MOTION_DOT":"0.00002747","REF_FRAME":"TEME","FILE":"3896567","OBJECT_TYPE":"PAYLOAD","SEMIMAJOR_AXIS":"6917.884","GP_ID":"230934321","CLASSIFICATION_TYPE":"U","MEAN_ANOMALY":"300.4963","RA_OF_ASC_NODE":"325.4860","MEAN_MOTION":"15.08838799","REV_AT_EPOCH":"3364","MEAN_MOTION_DDOT":"0.0000000000000","INCLINATION":"53.2166","NORAD_CAT_ID":"53905","ECCENTRICITY":"0.00008780","PERIOD":"95.438","SITE":"AFETR","PERIAPSIS":"539.142","CENTER_NAME":"EARTH","LAUNCH_DATE":"2022-09-24","OBJECT_NAME":"STARLINK-5003","APOAPSIS":"540.356","TLE_LINE2":"2 53905  53.2166 325.4860 0000878  59.6116 300.4963 15.08838799 33645","TIME_SYSTEM":"UTC","MEAN_ELEMENT_THEORY":"SGP4","EPOCH":"2023-04-29T16:46:26.995584","DECAY_DATE":null,"ELEMENT_SET_NO":"999","COUNTRY_CODE":"US"}];
